KAITUO 1B               
1 40912U 15049P   17320.37536486  .00001489  00000-0  75949-4 0  9990
2 40912  97.4521 325.8078 0016825  37.7788  69.1926 15.18176007119371
TIANWANG 1C (TW-1C)     
1 40926U 15051B   17320.82962042  .00009305  00000-0  19488-3 0  9999
2 40926  97.2135 359.3239 0010319 345.2086 101.2712 15.45592791120472
TIANWANG 1B (TW-1B)     
1 40927U 15051C   17320.81679134  .00009155  00000-0  19940-3 0  9992
2 40927  97.2216 359.2549 0010710 356.6304  90.8962 15.44439258120400
TIANWANG 1A (TW-1A)     
1 40928U 15051D   17320.85787007  .00003082  00000-0  86053-4 0  9999
2 40928  97.2117 353.9103 0012943  17.2898  93.6375 15.37396589120147
LAPAN-A2 (IO-86)        
1 40931U 15052B   17320.02107006  .00000537  00000-0 -14269-4 0  9991
2 40931   5.9984 230.1140 0012790 234.3992 125.5229 14.76552755115444
LQSAT                   
1 40958U 15057A   17320.75191702  .00000057  00000-0  16592-4 0  9998
2 40958  97.9646  33.2966 0016979 300.5866  59.3655 14.73000387113571
CHUBUSAT-2              
1 41338U 16012B   17319.89515549  .00000519  00000-0  34069-4 0  9997
2 41338  31.0028 228.6755 0013820 121.8681 238.3301 14.99867264 95786
CHUBUSAT-3              
1 41339U 16012C   17320.13571358  .00000436  00000-0  27346-4 0  9995
2 41339  31.0090 226.0544 0013682 131.6163 228.5648 15.00063001 95802
OUFTI-1                 
1 41458U 16025C   17320.65080701  .00001715  00000-0  93609-4 0  9991
2 41458  98.1686   6.8969 0173501 139.3214 222.1129 15.03922620 85484
E-ST@R-II               
1 41459U 16025D   17320.35744314  .00002198  00000-0  11928-3 0  9995
2 41459  98.1663   6.4985 0173868 141.0720 220.3183 15.03696489 85438
AAUSAT 4                
1 41460U 16025E   17320.38663498  .00002467  00000-0  13236-3 0  9996
2 41460  98.1633   6.7512 0166476 138.2527 223.1539 15.04863682 85478
NUSAT 1 (LO-87)         
1 41557U 16033B   17320.20783967  .00002758  00000-0  10446-3 0  9990
2 41557  97.4541  39.6943 0013928 184.0803 176.0325 15.27698474 81630
BEESAT-4                
1 41619U 16040W   17319.89480222  .00002670  00000-0  12189-3 0  9997
2 41619  97.4456  20.7244 0010299 255.4663 104.5430 15.21433455 65651
PRATHAM                 
1 41783U 16059A   17319.87248441  .00000104  00000-0  29625-4 0  9996
2 41783  98.1493  19.5295 0034499  46.8576 313.5501 14.62878685 60778
ALSAT 1N                
1 41789U 16059G   17320.41855773  .00000124  00000-0  32724-4 0  9992
2 41789  98.1494  20.8665 0029330  39.1290 321.2026 14.64100017 60886
NAYIF-1 (EO-88)         
1 42017U 17008BX  17319.91459584  .00002904  00000-0  12390-3 0  9999
2 42017  97.4783  20.9870 0007837  58.2279 301.9720 15.23704457 41586
LILACSAT-1              
1 42725U 98067ME  17320.37208245  .00025866  00000-0  31295-3 0  9994
2 42725  51.6394 356.0005 0004713 142.6710 217.4611 15.60498549 27197
MAX VALIER SAT          
1 42778U 17036P   17320.76043551  .00001818  00000-0  85382-4 0  9997
2 42778  97.4341  18.6931 0014480  93.9163 266.3728 15.20818767 22210
